CTC1_L_00560094-01
1 23062U 25026RQ  26037.47809028  .00000000  00000+0  00000-0 0  9993
2 23062  98.0000 279.0000 0000000   0.0000 198.0000 14.73473835    14
CTC1_L_00560094-02
1 23063U 23983RW  26037.47809028  .00000000  00000+0  00000-0 0  9994
2 23063  98.0000 279.0000 0000000   0.0000  18.0000 14.73473835    16
CTC1_L_00560095-01
1 23064U 25727IT  26037.47809028  .00000000  00000+0  00000-0 0  9993
2 23064  98.0000 282.0000 0000000   0.0000 204.0000 14.73473835    18
CTC1_L_00560095-02
1 23065U 26482CL  26037.47809028  .00000000  00000+0  00000-0 0  9993
2 23065  98.0000 282.0000 0000000   0.0000  24.0000 14.73473835    19
CTC1_L_00560096-01
1 23066U 23412AW  26037.47809028  .00000000  00000+0  00000-0 0  9994
2 23066  98.0000 285.0000 0000000   0.0000 210.0000 14.73473835    10
CTC1_L_00560096-02
1 23067U 22877LH  26037.47809028  .00000000  00000+0  00000-0 0  9999
2 23067  98.0000 285.0000 0000000   0.0000  30.0000 14.73473835    11
CTC1_L_00560097-01
1 23068U 26771CL  26037.47809028  .00000000  00000+0  00000-0 0  9997
2 23068  98.0000 288.0000 0000000   0.0000 216.0000 14.73473835    11
CTC1_L_00560097-02
1 23069U 22343RE  26037.47809028  .00000000  00000+0  00000-0 0  9999
2 23069  98.0000 288.0000 0000000   0.0000  36.0000 14.73473835    12
CTC1_L_00560098-01
1 23070U 22429IK  26037.47809028  .00000000  00000+0  00000-0 0  9996
2 23070  98.0000 291.0000 0000000   0.0000 222.0000 14.73473835    15
CTC1_L_00560098-02
1 23071U 25117GX  26037.47809028  .00000000  00000+0  00000-0 0  9994
2 23071  98.0000 291.0000 0000000   0.0000  42.0000 14.73473835    16
CTC1_L_00560099-01
1 23072U 26443VB  26037.47809028  .00000000  00000+0  00000-0 0  9998
2 23072  98.0000 294.0000 0000000   0.0000 228.0000 14.73473835    16
CTC1_L_00560099-02
1 23073U 23177EH  26037.47809028  .00000000  00000+0  00000-0 0  9990
2 23073  98.0000 294.0000 0000000   0.0000  48.0000 14.73473835    17
CTC1_L_00560100-01
1 23074U 26496CP  26037.47809028  .00000000  00000+0  00000-0 0  9998
2 23074  98.0000 297.0000 0000000   0.0000 234.0000 14.73473835    18
CTC1_L_00560100-02
1 23075U 23276FM  26037.47809028  .00000000  00000+0  00000-0 0  9992
2 23075  98.0000 297.0000 0000000   0.0000  54.0000 14.73473835    19
CTC1_L_00560101-01
1 23076U 25341UY  26037.47809028  .00000000  00000+0  00000-0 0  9998
2 23076  98.0000 300.0000 0000000   0.0000 240.0000 14.73473835    12
CTC1_L_00560101-02
1 23077U 26811LB  26037.47809028  .00000000  00000+0  00000-0 0  9992
2 23077  98.0000 300.0000 0000000   0.0000  60.0000 14.73473835    13
CTC1_L_00560102-01
1 23078U 22698YO  26037.47809028  .00000000  00000+0  00000-0 0  9992
2 23078  98.0000 303.0000 0000000   0.0000 246.0000 14.73473835    13
CTC1_L_00560102-02
1 23079U 25031VX  26037.47809028  .00000000  00000+0  00000-0 0  9997
2 23079  98.0000 303.0000 0000000   0.0000  66.0000 14.73473835    14
CTC1_L_00560103-01
1 23080U 23019PB  26037.47809028  .00000000  00000+0  00000-0 0  9993
2 23080  98.0000 306.0000 0000000   0.0000 252.0000 14.73473835    16
CTC1_L_00560103-02
1 23081U 26840ZC  26037.47809028  .00000000  00000+0  00000-0 0  9999
2 23081  98.0000 306.0000 0000000   0.0000  72.0000 14.73473835    17
CTC1_L_00560104-01
1 23082U 22877AZ  26037.47809028  .00000000  00000+0  00000-0 0  9996
2 23082  98.0000 309.0000 0000000   0.0000 258.0000 14.73473835    17
CTC1_L_00560104-02
1 23083U 23489LP  26037.47809028  .00000000  00000+0  00000-0 0  9997
2 23083  98.0000 309.0000 0000000   0.0000  78.0000 14.73473835    18
CTC1_L_00560105-01
1 23084U 22286GI  26037.47809028  .00000000  00000+0  00000-0 0  9992
2 23084  98.0000 312.0000 0000000   0.0000 264.0000 14.73473835    10
CTC1_L_00560105-02
1 23085U 23655DV  26037.47809028  .00000000  00000+0  00000-0 0  9994
2 23085  98.0000 312.0000 0000000   0.0000  84.0000 14.73473835    11
CTC1_L_00560106-01
1 23086U 26232YW  26037.47809028  .00000000  00000+0  00000-0 0  9999
2 23086  98.0000 315.0000 0000000   0.0000 270.0000 14.73473835    12
CTC1_L_00560106-02
1 23087U 26499XM  26037.47809028  .00000000  00000+0  00000-0 0  9995
2 23087  98.0000 315.0000 0000000   0.0000  90.0000 14.73473835    13
CTC1_L_00560107-01
1 23088U 26544HY  26037.47809028  .00000000  00000+0  00000-0 0  9997
2 23088  98.0000 318.0000 0000000   0.0000 276.0000 14.73473835    13
CTC1_L_00560107-02
1 23089U 22432LY  26037.47809028  .00000000  00000+0  00000-0 0  9990
2 23089  98.0000 318.0000 0000000   0.0000  96.0000 14.73473835    14
CTC1_L_00560108-01
1 23090U 24751HO  26037.47809028  .00000000  00000+0  00000-0 0  9998
2 23090  98.0000 321.0000 0000000   0.0000 282.0000 14.73473835    17
CTC1_L_00560108-02
1 23091U 24347OA  26037.47809028  .00000000  00000+0  00000-0 0  9990
2 23091  98.0000 321.0000 0000000   0.0000 102.0000 14.73473835    19
CTC1_L_00560109-01
1 23092U 24908YM  26037.47809028  .00000000  00000+0  00000-0 0  9994
2 23092  98.0000 324.0000 0000000   0.0000 288.0000 14.73473835    18
CTC1_L_00560109-02
1 23093U 25166CL  26037.47809028  .00000000  00000+0  00000-0 0  9992
2 23093  98.0000 324.0000 0000000   0.0000 108.0000 14.73473835    10
CTC1_L_00560110-01
1 23094U 24996FW  26037.47809028  .00000000  00000+0  00000-0 0  9993
2 23094  98.0000 327.0000 0000000   0.0000 294.0000 14.73473835    10
CTC1_L_00560110-02
1 23095U 22630TJ  26037.47809028  .00000000  00000+0  00000-0 0  9997
2 23095  98.0000 327.0000 0000000   0.0000 114.0000 14.73473835    12
CTC1_L_00560111-01
1 23096U 23520RU  26037.47809028  .00000000  00000+0  00000-0 0  9997
2 23096  98.0000 330.0000 0000000   0.0000 300.0000 14.73473835    14
CTC1_L_00560111-02
1 23097U 22932WB  26037.47809028  .00000000  00000+0  00000-0 0  9994
2 23097  98.0000 330.0000 0000000   0.0000 120.0000 14.73473835    15
CTC1_L_00560112-01
1 23098U 25164TV  26037.47809028  .00000000  00000+0  00000-0 0  9995
2 23098  98.0000 333.0000 0000000   0.0000 306.0000 14.73473835    15
CTC1_L_00560112-02
1 23099U 24736BU  26037.47809028  .00000000  00000+0  00000-0 0  9990
2 23099  98.0000 333.0000 0000000   0.0000 126.0000 14.73473835    16
CTC1_L_00560113-01
1 23100U 25718OY  26037.47809028  .00000000  00000+0  00000-0 0  9994
2 23100  98.0000 336.0000 0000000   0.0000 312.0000 14.73473835    19
CTC1_L_00560113-02
1 23101U 25812DS  26037.47809028  .00000000  00000+0  00000-0 0  9990
2 23101  98.0000 336.0000 0000000   0.0000 132.0000 14.73473835    10
CTC1_L_00560114-01
1 23102U 26930KO  26037.47809028  .00000000  00000+0  00000-0 0  9993
2 23102  98.0000 339.0000 0000000   0.0000 318.0000 14.73473835    10
CTC1_L_00560114-02
1 23103U 26468SQ  26037.47809028  .00000000  00000+0  00000-0 0  9990
2 23103  98.0000 339.0000 0000000   0.0000 138.0000 14.73473835    11
CTC1_L_00560115-01
1 23104U 26171EY  26037.47809028  .00000000  00000+0  00000-0 0  9992
2 23104  98.0000 342.0000 0000000   0.0000 324.0000 14.73473835    13
CTC1_L_00560115-02
1 23105U 24332TH  26037.47809028  .00000000  00000+0  00000-0 0  9990
2 23105  98.0000 342.0000 0000000   0.0000 144.0000 14.73473835    14
CTC1_L_00560116-01
1 23106U 22552EB  26037.47809028  .00000000  00000+0  00000-0 0  9993
2 23106  98.0000 345.0000 0000000   0.0000 330.0000 14.73473835    15
CTC1_L_00560116-02
1 23107U 24290UF  26037.47809028  .00000000  00000+0  00000-0 0  9995
2 23107  98.0000 345.0000 0000000   0.0000 150.0000 14.73473835    16
CTC1_L_00560117-01
1 23108U 26391LK  26037.47809028  .00000000  00000+0  00000-0 0  9990
2 23108  98.0000 348.0000 0000000   0.0000 336.0000 14.73473835    16
CTC1_L_00560117-02
1 23109U 26259KC  26037.47809028  .00000000  00000+0  00000-0 0  9994
2 23109  98.0000 348.0000 0000000   0.0000 156.0000 14.73473835    17
CTC1_L_00560118-01
1 23110U 22768HS  26037.47809028  .00000000  00000+0  00000-0 0  9997
2 23110  98.0000 351.0000 0000000   0.0000 342.0000 14.73473835    10
CTC1_L_00560118-02
1 23111U 26697KD  26037.47809028  .00000000  00000+0  00000-0 0  9993
2 23111  98.0000 351.0000 0000000   0.0000 162.0000 14.73473835    11
CTC1_L_00560119-01
1 23112U 24855BI  26037.47809028  .00000000  00000+0  00000-0 0  9998
2 23112  98.0000 354.0000 0000000   0.0000 348.0000 14.73473835    11
CTC1_L_00560119-02
1 23113U 22401YX  26037.47809028  .00000000  00000+0  00000-0 0  9994
2 23113  98.0000 354.0000 0000000   0.0000 168.0000 14.73473835    12
CTC1_L_00560120-01
1 23114U 22354SD  26037.47809028  .00000000  00000+0  00000-0 0  9992
2 23114  98.0000 357.0000 0000000   0.0000 354.0000 14.73473835    13
CTC1_L_00560120-02
1 23115U 24630EG  26037.47809028  .00000000  00000+0  00000-0 0  9992
2 23115  98.0000 357.0000 0000000   0.0000 174.0000 14.73473835    14
